[{"OBJECT_NAME":"IRIDIUM 172","OBJECT_ID":"2019-002F","EPOCH":"2026-03-09T21:35:38.790528","MEAN_MOTION":14.34217807,"ECCENTRICITY":0.00023275,"INCLINATION":86.397,"RA_OF_ASC_NODE":35.0518,"ARG_OF_PERICENTER":84.9159,"MEAN_ANOMALY":275.2302,"EPHEMERIS_TYPE":0,"CLASSIFICATION_TYPE":"U","NORAD_CAT_ID":43927,"ELEMENT_SET_NO":999,"REV_AT_EPOCH":37473,"BSTAR":0.00014166362,"MEAN_MOTION_DOT":4.17e-6,"MEAN_MOTION_DDOT":0},{"OBJECT_NAME":"COSMOS 970 DEB","OBJECT_ID":"1977-121BP","EPOCH":"2026-03-09T09:19:03.588672","MEAN_MOTION":13.99739419,"ECCENTRICITY":0.01733244,"INCLINATION":65.8062,"RA_OF_ASC_NODE":184.2138,"ARG_OF_PERICENTER":268.2699,"MEAN_ANOMALY":89.8518,"EPHEMERIS_TYPE":0,"CLASSIFICATION_TYPE":"U","NORAD_CAT_ID":17732,"ELEMENT_SET_NO":999,"REV_AT_EPOCH":7615,"BSTAR":0.0014969482,"MEAN_MOTION_DOT":2.413e-5,"MEAN_MOTION_DDOT":0}]
